STARLINK-36076          
1 66588U 25270A   25353.80387321  .00030212  00000+0  72751-3 0  9991
2 66588  42.9989 152.0729 0002130 265.6518  94.4095 15.40704640  5435
STARLINK-35447          
1 66589U 25270B   25353.91668981  .00077507  00000+0  18465-2 0  9997
2 66589  42.9997 151.1844 0001419 284.6661  81.4126 15.40657902  5666
STARLINK-35429          
1 66590U 25270C   25353.91668981  .00080307  00000+0  19122-2 0  9992
2 66590  43.0000 150.9734 0001628 283.8311 169.3214 15.40657215  5666
STARLINK-36058          
1 66591U 25270D   25353.91668981 -.02015001  00000+0 -46449-1 0  9997
2 66591  42.9999 150.7822 0001277 287.2285 244.7180 15.45243519  5557
STARLINK-36066          
1 66592U 25270E   25353.14662311  .00028934  00000+0  69687-3 0  9990
2 66592  42.9987 155.7395 0001295 272.0620  88.0088 15.40718174  5230
STARLINK-36031          
1 66593U 25270F   25353.91668981  .00078435  00000+0  18682-2 0  9994
2 66593  42.9996 151.0938 0001597 275.0510 128.3437 15.40658556  5557
STARLINK-36032          
1 66594U 25270G   25353.91668981  .00093847  00000+0  22325-2 0  9998
2 66594  43.0000 150.8517 0001549 262.1070 240.7844 15.40616773  5298
STARLINK-35711          
1 66595U 25270H   25353.81812125  .00085137  00000+0  14406-2 0  9993
2 66595  42.9992 151.3087 0001669 282.2171  77.8502 15.50592600  5555
STARLINK-35811          
1 66596U 25270J   25353.79938862  .00032856  00000+0  78995-3 0  9992
2 66596  42.9990 152.0383 0002506 266.8739  93.1831 15.40716586  5545
STARLINK-35820          
1 66597U 25270K   25353.72560039  .00017387  00000+0  42249-3 0  9998
2 66597  42.9992 152.3420 0001480 270.4129  89.6558 15.40703318  5531
STARLINK-35981          
1 66598U 25270L   25353.91668981  .00077516  00000+0  18465-2 0  9997
2 66598  42.9997 151.0321 0001972 273.7798 154.4941 15.40660122  5393
STARLINK-35930          
1 66599U 25270M   25353.17264613 -.00000514  00000+0 -29650-5 0  9997
2 66599  42.9985 155.0670 0002903 324.1890  35.8775 15.50348464  5346
