CCSDS_OMM_VERS = 2.0
CREATION_DATE  = 
ORIGINATOR     = 

OBJECT_NAME    = STARLINK-36076
OBJECT_ID      = 2025-270A
CENTER_NAME    = EARTH
REF_FRAME      = TEME
TIME_SYSTEM    = UTC
MEAN_ELEMENT_THEORY = SGP/SGP4

EPOCH          = 2025-12-19T19:17:34.645344
MEAN_MOTION    = 15.40704640
ECCENTRICITY   = .00021308
INCLINATION    = 42.9989
RA_OF_ASC_NODE = 152.0729
ARG_OF_PERICENTER = 265.6518
MEAN_ANOMALY   = 94.4095

EPHEMERIS_TYPE = 0
CLASSIFICATION_TYPE = U
NORAD_CAT_ID   = 66588
ELEMENT_SET_NO = 999
REV_AT_EPOCH   = 543
BSTAR          = .72750808E-3
MEAN_MOTION_DOT = .30212E-3
MEAN_MOTION_DDOT = 0

CCSDS_OMM_VERS = 2.0
CREATION_DATE  = 
ORIGINATOR     = 

OBJECT_NAME    = STARLINK-35447
OBJECT_ID      = 2025-270B
CENTER_NAME    = EARTH
REF_FRAME      = TEME
TIME_SYSTEM    = UTC
MEAN_ELEMENT_THEORY = SGP/SGP4

EPOCH          = 2025-12-19T22:00:01.999584
MEAN_MOTION    = 15.40657902
ECCENTRICITY   = .0001419
INCLINATION    = 42.9997
RA_OF_ASC_NODE = 151.1844
ARG_OF_PERICENTER = 284.6661
MEAN_ANOMALY   = 81.4126

EPHEMERIS_TYPE = 0
CLASSIFICATION_TYPE = U
NORAD_CAT_ID   = 66589
ELEMENT_SET_NO = 999
REV_AT_EPOCH   = 566
BSTAR          = .18464789E-2
MEAN_MOTION_DOT = .77507E-3
MEAN_MOTION_DDOT = 0

CCSDS_OMM_VERS = 2.0
CREATION_DATE  = 
ORIGINATOR     = 

OBJECT_NAME    = STARLINK-35429
OBJECT_ID      = 2025-270C
CENTER_NAME    = EARTH
REF_FRAME      = TEME
TIME_SYSTEM    = UTC
MEAN_ELEMENT_THEORY = SGP/SGP4

EPOCH          = 2025-12-19T22:00:01.999584
MEAN_MOTION    = 15.40657215
ECCENTRICITY   = .00016282
INCLINATION    = 43.0000
RA_OF_ASC_NODE = 150.9734
ARG_OF_PERICENTER = 283.8311
MEAN_ANOMALY   = 169.3214

EPHEMERIS_TYPE = 0
CLASSIFICATION_TYPE = U
NORAD_CAT_ID   = 66590
ELEMENT_SET_NO = 999
REV_AT_EPOCH   = 566
BSTAR          = .19122458E-2
MEAN_MOTION_DOT = .80307E-3
MEAN_MOTION_DDOT = 0

CCSDS_OMM_VERS = 2.0
CREATION_DATE  = 
ORIGINATOR     = 

OBJECT_NAME    = STARLINK-36058
OBJECT_ID      = 2025-270D
CENTER_NAME    = EARTH
REF_FRAME      = TEME
TIME_SYSTEM    = UTC
MEAN_ELEMENT_THEORY = SGP/SGP4

EPOCH          = 2025-12-19T22:00:01.999584
MEAN_MOTION    = 15.45243519
ECCENTRICITY   = .00012773
INCLINATION    = 42.9999
RA_OF_ASC_NODE = 150.7822
ARG_OF_PERICENTER = 287.2285
MEAN_ANOMALY   = 244.7180

EPHEMERIS_TYPE = 0
CLASSIFICATION_TYPE = U
NORAD_CAT_ID   = 66591
ELEMENT_SET_NO = 999
REV_AT_EPOCH   = 555
BSTAR          = -.46448899E-1
MEAN_MOTION_DOT = -.2015001E-1
MEAN_MOTION_DDOT = 0

CCSDS_OMM_VERS = 2.0
CREATION_DATE  = 
ORIGINATOR     = 

OBJECT_NAME    = STARLINK-36066
OBJECT_ID      = 2025-270E
CENTER_NAME    = EARTH
REF_FRAME      = TEME
TIME_SYSTEM    = UTC
MEAN_ELEMENT_THEORY = SGP/SGP4

EPOCH          = 2025-12-19T03:31:08.236704
MEAN_MOTION    = 15.40718174
ECCENTRICITY   = .00012951
INCLINATION    = 42.9987
RA_OF_ASC_NODE = 155.7395
ARG_OF_PERICENTER = 272.0620
MEAN_ANOMALY   = 88.0088

EPHEMERIS_TYPE = 0
CLASSIFICATION_TYPE = U
NORAD_CAT_ID   = 66592
ELEMENT_SET_NO = 999
REV_AT_EPOCH   = 523
BSTAR          = .69686524E-3
MEAN_MOTION_DOT = .28934E-3
MEAN_MOTION_DDOT = 0

CCSDS_OMM_VERS = 2.0
CREATION_DATE  = 
ORIGINATOR     = 

OBJECT_NAME    = STARLINK-36031
OBJECT_ID      = 2025-270F
CENTER_NAME    = EARTH
REF_FRAME      = TEME
TIME_SYSTEM    = UTC
MEAN_ELEMENT_THEORY = SGP/SGP4

EPOCH          = 2025-12-19T22:00:01.999584
MEAN_MOTION    = 15.40658556
ECCENTRICITY   = .00015975
INCLINATION    = 42.9996
RA_OF_ASC_NODE = 151.0938
ARG_OF_PERICENTER = 275.0510
MEAN_ANOMALY   = 128.3437

EPHEMERIS_TYPE = 0
CLASSIFICATION_TYPE = U
NORAD_CAT_ID   = 66593
ELEMENT_SET_NO = 999
REV_AT_EPOCH   = 555
BSTAR          = .1868216E-2
MEAN_MOTION_DOT = .78435E-3
MEAN_MOTION_DDOT = 0

CCSDS_OMM_VERS = 2.0
CREATION_DATE  = 
ORIGINATOR     = 

OBJECT_NAME    = STARLINK-36032
OBJECT_ID      = 2025-270G
CENTER_NAME    = EARTH
REF_FRAME      = TEME
TIME_SYSTEM    = UTC
MEAN_ELEMENT_THEORY = SGP/SGP4

EPOCH          = 2025-12-19T22:00:01.999584
MEAN_MOTION    = 15.40616773
ECCENTRICITY   = .00015494
INCLINATION    = 43.0000
RA_OF_ASC_NODE = 150.8517
ARG_OF_PERICENTER = 262.1070
MEAN_ANOMALY   = 240.7844

EPHEMERIS_TYPE = 0
CLASSIFICATION_TYPE = U
NORAD_CAT_ID   = 66594
ELEMENT_SET_NO = 999
REV_AT_EPOCH   = 529
BSTAR          = .22324663E-2
MEAN_MOTION_DOT = .93847E-3
MEAN_MOTION_DDOT = 0

CCSDS_OMM_VERS = 2.0
CREATION_DATE  = 
ORIGINATOR     = 

OBJECT_NAME    = STARLINK-35711
OBJECT_ID      = 2025-270H
CENTER_NAME    = EARTH
REF_FRAME      = TEME
TIME_SYSTEM    = UTC
MEAN_ELEMENT_THEORY = SGP/SGP4

EPOCH          = 2025-12-19T19:38:05.676000
MEAN_MOTION    = 15.50592600
ECCENTRICITY   = .00016698
INCLINATION    = 42.9992
RA_OF_ASC_NODE = 151.3087
ARG_OF_PERICENTER = 282.2171
MEAN_ANOMALY   = 77.8502

EPHEMERIS_TYPE = 0
CLASSIFICATION_TYPE = U
NORAD_CAT_ID   = 66595
ELEMENT_SET_NO = 999
REV_AT_EPOCH   = 555
BSTAR          = .14405894E-2
MEAN_MOTION_DOT = .85137E-3
MEAN_MOTION_DDOT = 0

CCSDS_OMM_VERS = 2.0
CREATION_DATE  = 
ORIGINATOR     = 

OBJECT_NAME    = STARLINK-35811
OBJECT_ID      = 2025-270J
CENTER_NAME    = EARTH
REF_FRAME      = TEME
TIME_SYSTEM    = UTC
MEAN_ELEMENT_THEORY = SGP/SGP4

EPOCH          = 2025-12-19T19:11:07.176768
MEAN_MOTION    = 15.40716586
ECCENTRICITY   = .00025067
INCLINATION    = 42.9990
RA_OF_ASC_NODE = 152.0383
ARG_OF_PERICENTER = 266.8739
MEAN_ANOMALY   = 93.1831

EPHEMERIS_TYPE = 0
CLASSIFICATION_TYPE = U
NORAD_CAT_ID   = 66596
ELEMENT_SET_NO = 999
REV_AT_EPOCH   = 554
BSTAR          = .78994793E-3
MEAN_MOTION_DOT = .32856E-3
MEAN_MOTION_DDOT = 0

CCSDS_OMM_VERS = 2.0
CREATION_DATE  = 
ORIGINATOR     = 

OBJECT_NAME    = STARLINK-35820
OBJECT_ID      = 2025-270K
CENTER_NAME    = EARTH
REF_FRAME      = TEME
TIME_SYSTEM    = UTC
MEAN_ELEMENT_THEORY = SGP/SGP4

EPOCH          = 2025-12-19T17:24:51.873696
MEAN_MOTION    = 15.40703318
ECCENTRICITY   = .00014809
INCLINATION    = 42.9992
RA_OF_ASC_NODE = 152.3420
ARG_OF_PERICENTER = 270.4129
MEAN_ANOMALY   = 89.6558

EPHEMERIS_TYPE = 0
CLASSIFICATION_TYPE = U
NORAD_CAT_ID   = 66597
ELEMENT_SET_NO = 999
REV_AT_EPOCH   = 553
BSTAR          = .42249274E-3
MEAN_MOTION_DOT = .17387E-3
MEAN_MOTION_DDOT = 0

CCSDS_OMM_VERS = 2.0
CREATION_DATE  = 
ORIGINATOR     = 

OBJECT_NAME    = STARLINK-35981
OBJECT_ID      = 2025-270L
CENTER_NAME    = EARTH
REF_FRAME      = TEME
TIME_SYSTEM    = UTC
MEAN_ELEMENT_THEORY = SGP/SGP4

EPOCH          = 2025-12-19T22:00:01.999584
MEAN_MOTION    = 15.40660122
ECCENTRICITY   = .00019725
INCLINATION    = 42.9997
RA_OF_ASC_NODE = 151.0321
ARG_OF_PERICENTER = 273.7798
MEAN_ANOMALY   = 154.4941

EPHEMERIS_TYPE = 0
CLASSIFICATION_TYPE = U
NORAD_CAT_ID   = 66598
ELEMENT_SET_NO = 999
REV_AT_EPOCH   = 539
BSTAR          = .18465235E-2
MEAN_MOTION_DOT = .77516E-3
MEAN_MOTION_DDOT = 0

CCSDS_OMM_VERS = 2.0
CREATION_DATE  = 
ORIGINATOR     = 

OBJECT_NAME    = STARLINK-35930
OBJECT_ID      = 2025-270M
CENTER_NAME    = EARTH
REF_FRAME      = TEME
TIME_SYSTEM    = UTC
MEAN_ELEMENT_THEORY = SGP/SGP4

EPOCH          = 2025-12-19T04:08:36.625632
MEAN_MOTION    = 15.50348464
ECCENTRICITY   = .0002903
INCLINATION    = 42.9985
RA_OF_ASC_NODE = 155.0670
ARG_OF_PERICENTER = 324.1890
MEAN_ANOMALY   = 35.8775

EPHEMERIS_TYPE = 0
CLASSIFICATION_TYPE = U
NORAD_CAT_ID   = 66599
ELEMENT_SET_NO = 999
REV_AT_EPOCH   = 534
BSTAR          = -.2964998E-5
MEAN_MOTION_DOT = -.514E-5
MEAN_MOTION_DDOT = 0

